{
  "type": "FeatureCollection",
  "features": [
    {
      "type": "Feature",
      "properties": {
        "norad_id": 30860,
        "name": "FENGYUN 1C DEB",
        "group": "fengyun-1c-debris",
        "lat": 4.052428636879469,
        "lon": -104.45297583741817,
        "alt_km": 783.4794816710446,
        "timestamp": "2025-12-27T05:29:39.482113+00:00",
        "meta_object_name": "FENGYUN 1C DEB",
        "meta_object_id": "1999-025AWW",
        "meta_epoch": "2025-12-26T21:56:12.269760",
        "meta_mean_motion": 14.25599671,
        "meta_eccentricity": 0.00401478,
        "meta_inclination": 98.904,
        "meta_ra_of_asc_node": 74.591,
        "meta_arg_of_pericenter": 148.1107,
        "meta_mean_anomaly": 212.2514,
        "meta_ephemeris_type": 0,
        "meta_classification_type": "U",
        "meta_norad_cat_id": 30860,
        "meta_element_set_no": 999,
        "meta_rev_at_epoch": 96718,
        "meta_bstar": 0.0018147293,
        "meta_mean_motion_dot": 4.29e-05,
        "meta_mean_motion_ddot": 0,
        "tle_line1": "1 30860U 99025AWW 25360.91403090  .00004290  00000+0  18147-2 0  9991",
        "tle_line2": "2 30860  98.9040  74.5910 0040147 148.1107 212.2514 14.25599671967180"
      },
      "geometry": {
        "type": "Point",
        "coordinates": [
          -104.45297583741817,
          4.052428636879469
        ]
      }
    },
    {
      "type": "Feature",
      "properties": {
        "norad_id": 30862,
        "name": "FENGYUN 1C DEB",
        "group": "fengyun-1c-debris",
        "lat": 2.626846815366107,
        "lon": -86.85414891672,
        "alt_km": 729.3239556191147,
        "timestamp": "2025-12-27T05:29:39.482123+00:00",
        "meta_object_name": "FENGYUN 1C DEB",
        "meta_object_id": "1999-025AWY",
        "meta_epoch": "2025-12-26T17:44:38.035104",
        "meta_mean_motion": 14.4335918,
        "meta_eccentricity": 0.00509019,
        "meta_inclination": 98.9557,
        "meta_ra_of_asc_node": 92.2168,
        "meta_arg_of_pericenter": 123.1374,
        "meta_mean_anomaly": 31.0423,
        "meta_ephemeris_type": 0,
        "meta_classification_type": "U",
        "meta_norad_cat_id": 30862,
        "meta_element_set_no": 999,
        "meta_rev_at_epoch": 96921,
        "meta_bstar": 0.0032168775,
        "meta_mean_motion_dot": 0.00010991,
        "meta_mean_motion_ddot": 0,
        "tle_line1": "1 30862U 99025AWY 25360.73932911  .00010991  00000+0  32169-2 0  9997",
        "tle_line2": "2 30862  98.9557  92.2168 0050901 123.1374  31.0423 14.43359180969216"
      },
      "geometry": {
        "type": "Point",
        "coordinates": [
          -86.85414891672,
          2.626846815366107
        ]
      }
    },
    {
      "type": "Feature",
      "properties": {
        "norad_id": 30863,
        "name": "FENGYUN 1C DEB",
        "group": "fengyun-1c-debris",
        "lat": -23.638545952116697,
        "lon": -167.09586248323993,
        "alt_km": 1764.393118770834,
        "timestamp": "2025-12-27T05:29:39.482134+00:00",
        "meta_object_name": "FENGYUN 1C DEB",
        "meta_object_id": "1999-025AWZ",
        "meta_epoch": "2025-12-21T07:26:52.161216",
        "meta_mean_motion": 12.40539027,
        "meta_eccentricity": 0.0877249,
        "meta_inclination": 99.1205,
        "meta_ra_of_asc_node": 184.3542,
        "meta_arg_of_pericenter": 232.3747,
        "meta_mean_anomaly": 314.6544,
        "meta_ephemeris_type": 0,
        "meta_classification_type": "U",
        "meta_norad_cat_id": 30863,
        "meta_element_set_no": 999,
        "meta_rev_at_epoch": 59846,
        "meta_bstar": 0.0027378,
        "meta_mean_motion_dot": 1.406e-05,
        "meta_mean_motion_ddot": 0,
        "tle_line1": "1 30863U 99025AWZ 25355.31032594  .00001406  00000+0  27378-2 0  9991",
        "tle_line2": "2 30863  99.1205 184.3542 0877249 232.3747 314.6544 12.40539027598462"
      },
      "geometry": {
        "type": "Point",
        "coordinates": [
          -167.09586248323993,
          -23.638545952116697
        ]
      }
    },
    {
      "type": "Feature",
      "properties": {
        "norad_id": 30867,
        "name": "FENGYUN 1C DEB",
        "group": "fengyun-1c-debris",
        "lat": 10.993525469952575,
        "lon": -94.88785752808154,
        "alt_km": 778.6192127229851,
        "timestamp": "2025-12-27T05:29:39.482144+00:00",
        "meta_object_name": "FENGYUN 1C DEB",
        "meta_object_id": "1999-025AXD",
        "meta_epoch": "2025-12-26T11:12:10.399392",
        "meta_mean_motion": 14.28151494,
        "meta_eccentricity": 0.0053275,
        "meta_inclination": 97.8766,
        "meta_ra_of_asc_node": 265.9653,
        "meta_arg_of_pericenter": 315.9723,
        "meta_mean_anomaly": 98.5555,
        "meta_ephemeris_type": 0,
        "meta_classification_type": "U",
        "meta_norad_cat_id": 30867,
        "meta_element_set_no": 999,
        "meta_rev_at_epoch": 96733,
        "meta_bstar": 0.0024549,
        "meta_mean_motion_dot": 6.167e-05,
        "meta_mean_motion_ddot": 0,
        "tle_line1": "1 30867U 99025AXD 25360.46678703  .00006167  00000+0  24549-2 0  9991",
        "tle_line2": "2 30867  97.8766 265.9653 0053275 315.9723  98.5555 14.28151494967331"
      },
      "geometry": {
        "type": "Point",
        "coordinates": [
          -94.88785752808154,
          10.993525469952575
        ]
      }
    },
    {
      "type": "Feature",
      "properties": {
        "norad_id": 30868,
        "name": "FENGYUN 1C DEB",
        "group": "fengyun-1c-debris",
        "lat": 41.92858442949829,
        "lon": -129.37858270394437,
        "alt_km": 912.5549981882205,
        "timestamp": "2025-12-27T05:29:39.482155+00:00",
        "meta_object_name": "FENGYUN 1C DEB",
        "meta_object_id": "1999-025AXE",
        "meta_epoch": "2025-12-25T03:00:10.115712",
        "meta_mean_motion": 14.11126234,
        "meta_eccentricity": 0.01358087,
        "meta_inclination": 98.2628,
        "meta_ra_of_asc_node": 236.1837,
        "meta_arg_of_pericenter": 177.1984,
        "meta_mean_anomaly": 345.1428,
        "meta_ephemeris_type": 0,
        "meta_classification_type": "U",
        "meta_norad_cat_id": 30868,
        "meta_element_set_no": 999,
        "meta_rev_at_epoch": 96885,
        "meta_bstar": 0.00015734601,
        "meta_mean_motion_dot": 2.7e-06,
        "meta_mean_motion_ddot": 0,
        "tle_line1": "1 30868U 99025AXE 25359.12511708  .00000270  00000+0  15735-3 0  9991",
        "tle_line2": "2 30868  98.2628 236.1837 0135808 177.1984 345.1428 14.11126234968852"
      },
      "geometry": {
        "type": "Point",
        "coordinates": [
          -129.37858270394437,
          41.92858442949829
        ]
      }
    },
    {
      "type": "Feature",
      "properties": {
        "norad_id": 30872,
        "name": "FENGYUN 1C DEB",
        "group": "fengyun-1c-debris",
        "lat": -67.161890004509,
        "lon": -147.9737808734509,
        "alt_km": 770.5943900204729,
        "timestamp": "2025-12-27T05:29:39.482165+00:00",
        "meta_object_name": "FENGYUN 1C DEB",
        "meta_object_id": "1999-025AXJ",
        "meta_epoch": "2025-12-24T16:52:07.429728",
        "meta_mean_motion": 14.39483316,
        "meta_eccentricity": 0.00403873,
        "meta_inclination": 99.1918,
        "meta_ra_of_asc_node": 51.9309,
        "meta_arg_of_pericenter": 353.0106,
        "meta_mean_anomaly": 133.3238,
        "meta_ephemeris_type": 0,
        "meta_classification_type": "U",
        "meta_norad_cat_id": 30872,
        "meta_element_set_no": 999,
        "meta_rev_at_epoch": 97908,
        "meta_bstar": 0.00084489054,
        "meta_mean_motion_dot": 2.609e-05,
        "meta_mean_motion_ddot": 0,
        "tle_line1": "1 30872U 99025AXJ 25358.70286377  .00002609  00000+0  84489-3 0  9990",
        "tle_line2": "2 30872  99.1918  51.9309 0040387 353.0106 133.3238 14.39483316979084"
      },
      "geometry": {
        "type": "Point",
        "coordinates": [
          -147.9737808734509,
          -67.161890004509
        ]
      }
    },
    {
      "type": "Feature",
      "properties": {
        "norad_id": 30873,
        "name": "FENGYUN 1C DEB",
        "group": "fengyun-1c-debris",
        "lat": -15.142778854492285,
        "lon": 178.78072809101923,
        "alt_km": 783.9072294992766,
        "timestamp": "2025-12-27T05:29:39.482175+00:00",
        "meta_object_name": "FENGYUN 1C DEB",
        "meta_object_id": "1999-025AXK",
        "meta_epoch": "2025-12-25T23:48:05.453856",
        "meta_mean_motion": 14.19149716,
        "meta_eccentricity": 0.01077411,
        "meta_inclination": 98.612,
        "meta_ra_of_asc_node": 359.9287,
        "meta_arg_of_pericenter": 250.1453,
        "meta_mean_anomaly": 108.8085,
        "meta_ephemeris_type": 0,
        "meta_classification_type": "U",
        "meta_norad_cat_id": 30873,
        "meta_element_set_no": 999,
        "meta_rev_at_epoch": 97380,
        "meta_bstar": 0.00018718205,
        "meta_mean_motion_dot": 3.71e-06,
        "meta_mean_motion_ddot": 0,
        "tle_line1": "1 30873U 99025AXK 25359.99172979  .00000371  00000+0  18718-3 0  9991",
        "tle_line2": "2 30873  98.6120 359.9287 0107741 250.1453 108.8085 14.19149716973802"
      },
      "geometry": {
        "type": "Point",
        "coordinates": [
          178.78072809101923,
          -15.142778854492285
        ]
      }
    }
  ]
}